KUIPER-00135            
1 65961U 25228Q   25299.71555891  .00030579  00000+0  91584-3 0  9997
2 65961  51.8814 247.1314 0005105 184.1675 175.9269 15.34246559  3197
KUIPER-00136            
1 65962U 25228R   25299.71216082  .00026130  00000+0  77420-3 0  9995
2 65962  51.8808 247.1088 0005751 180.0291 180.0695 15.34668700  3191
KUIPER-00137            
1 65963U 25228S   25299.71520922  .00030729  00000+0  91792-3 0  9994
2 65963  51.8813 247.1298 0005269 191.8157 168.2706 15.34326181  3191
KUIPER-00138            
1 65964U 25228T   25299.71659758  .00047521  00000+0  14183-2 0  9991
2 65964  51.8800 247.1327 0006022 203.3977 156.6735 15.34143336  3190
KUIPER-00140            
1 65965U 25228U   25299.71728080  .00044627  00000+0  13350-2 0  9996
2 65965  51.8810 247.1412 0005828 202.9125 157.1601 15.34099108  3195
KUIPER-00141            
1 65966U 25228V   25299.71372190  .00036329  00000+0  10760-2 0  9996
2 65966  51.8801 247.1130 0005782 183.4218 176.6729 15.34510852  3199
KUIPER-00146            
1 65967U 25228W   25299.71400898  .00039202  00000+0  11612-2 0  9994
2 65967  51.8808 247.1211 0006021 183.2719 176.8228 15.34468047  3192
KUIPER-00149            
1 65968U 25228X   25299.71246611  .00032437  00000+0  95845-3 0  9990
2 65968  51.8803 247.1062 0005767 181.0919 179.0055 15.34640433  3190
KUIPER-00154            
1 65969U 25228Y   25299.71189117  .00033503  00000+0  98720-3 0  9998
2 65969  51.8806 247.1032 0005855 179.5444 180.5548 15.34710856  3195
KUIPER-00157            
1 65970U 25228Z   25299.71606046  .00040557  00000+0  12088-2 0  9994
2 65970  51.8814 247.1352 0005731 195.8729 164.2077 15.34258892  3194
STRIX-5                 
1 65971U 25229A   25297.29131742  .00007332  00000+0  55984-3 0  9990
2 65971  41.9260 152.9598 0040776 308.0764  51.6386 15.01617556  1471
ELECTRON R/B            
1 65972U 25229B   25299.55279909  .00005478  00000+0  42197-3 0  9991
2 65972  41.9264 140.4735 0040430 322.4918  37.3088 15.01642007  1793
