CCSDS_OMM_VERS = 2.0
CREATION_DATE  = 
ORIGINATOR     = 

OBJECT_NAME    = KUIPER-00135
OBJECT_ID      = 2025-228Q
CENTER_NAME    = EARTH
REF_FRAME      = TEME
TIME_SYSTEM    = UTC
MEAN_ELEMENT_THEORY = SGP/SGP4

EPOCH          = 2025-10-26T17:10:24.289824
MEAN_MOTION    = 15.34246559
ECCENTRICITY   = .0005105
INCLINATION    = 51.8814
RA_OF_ASC_NODE = 247.1314
ARG_OF_PERICENTER = 184.1675
MEAN_ANOMALY   = 175.9269

EPHEMERIS_TYPE = 0
CLASSIFICATION_TYPE = U
NORAD_CAT_ID   = 65961
ELEMENT_SET_NO = 999
REV_AT_EPOCH   = 319
BSTAR          = .91584E-3
MEAN_MOTION_DOT = .30579E-3
MEAN_MOTION_DDOT = 0

CCSDS_OMM_VERS = 2.0
CREATION_DATE  = 
ORIGINATOR     = 

OBJECT_NAME    = KUIPER-00136
OBJECT_ID      = 2025-228R
CENTER_NAME    = EARTH
REF_FRAME      = TEME
TIME_SYSTEM    = UTC
MEAN_ELEMENT_THEORY = SGP/SGP4

EPOCH          = 2025-10-26T17:05:30.694848
MEAN_MOTION    = 15.34668700
ECCENTRICITY   = .0005751
INCLINATION    = 51.8808
RA_OF_ASC_NODE = 247.1088
ARG_OF_PERICENTER = 180.0291
MEAN_ANOMALY   = 180.0695

EPHEMERIS_TYPE = 0
CLASSIFICATION_TYPE = U
NORAD_CAT_ID   = 65962
ELEMENT_SET_NO = 999
REV_AT_EPOCH   = 319
BSTAR          = .7742E-3
MEAN_MOTION_DOT = .2613E-3
MEAN_MOTION_DDOT = 0

CCSDS_OMM_VERS = 2.0
CREATION_DATE  = 
ORIGINATOR     = 

OBJECT_NAME    = KUIPER-00137
OBJECT_ID      = 2025-228S
CENTER_NAME    = EARTH
REF_FRAME      = TEME
TIME_SYSTEM    = UTC
MEAN_ELEMENT_THEORY = SGP/SGP4

EPOCH          = 2025-10-26T17:09:54.076608
MEAN_MOTION    = 15.34326181
ECCENTRICITY   = .0005269
INCLINATION    = 51.8813
RA_OF_ASC_NODE = 247.1298
ARG_OF_PERICENTER = 191.8157
MEAN_ANOMALY   = 168.2706

EPHEMERIS_TYPE = 0
CLASSIFICATION_TYPE = U
NORAD_CAT_ID   = 65963
ELEMENT_SET_NO = 999
REV_AT_EPOCH   = 319
BSTAR          = .91792E-3
MEAN_MOTION_DOT = .30729E-3
MEAN_MOTION_DDOT = 0

CCSDS_OMM_VERS = 2.0
CREATION_DATE  = 
ORIGINATOR     = 

OBJECT_NAME    = KUIPER-00138
OBJECT_ID      = 2025-228T
CENTER_NAME    = EARTH
REF_FRAME      = TEME
TIME_SYSTEM    = UTC
MEAN_ELEMENT_THEORY = SGP/SGP4

EPOCH          = 2025-10-26T17:11:54.030912
MEAN_MOTION    = 15.34143336
ECCENTRICITY   = .0006022
INCLINATION    = 51.8800
RA_OF_ASC_NODE = 247.1327
ARG_OF_PERICENTER = 203.3977
MEAN_ANOMALY   = 156.6735

EPHEMERIS_TYPE = 0
CLASSIFICATION_TYPE = U
NORAD_CAT_ID   = 65964
ELEMENT_SET_NO = 999
REV_AT_EPOCH   = 319
BSTAR          = .14183E-2
MEAN_MOTION_DOT = .47521E-3
MEAN_MOTION_DDOT = 0

CCSDS_OMM_VERS = 2.0
CREATION_DATE  = 
ORIGINATOR     = 

OBJECT_NAME    = KUIPER-00140
OBJECT_ID      = 2025-228U
CENTER_NAME    = EARTH
REF_FRAME      = TEME
TIME_SYSTEM    = UTC
MEAN_ELEMENT_THEORY = SGP/SGP4

EPOCH          = 2025-10-26T17:12:53.061120
MEAN_MOTION    = 15.34099108
ECCENTRICITY   = .0005828
INCLINATION    = 51.8810
RA_OF_ASC_NODE = 247.1412
ARG_OF_PERICENTER = 202.9125
MEAN_ANOMALY   = 157.1601

EPHEMERIS_TYPE = 0
CLASSIFICATION_TYPE = U
NORAD_CAT_ID   = 65965
ELEMENT_SET_NO = 999
REV_AT_EPOCH   = 319
BSTAR          = .1335E-2
MEAN_MOTION_DOT = .44627E-3
MEAN_MOTION_DDOT = 0

CCSDS_OMM_VERS = 2.0
CREATION_DATE  = 
ORIGINATOR     = 

OBJECT_NAME    = KUIPER-00141
OBJECT_ID      = 2025-228V
CENTER_NAME    = EARTH
REF_FRAME      = TEME
TIME_SYSTEM    = UTC
MEAN_ELEMENT_THEORY = SGP/SGP4

EPOCH          = 2025-10-26T17:07:45.572160
MEAN_MOTION    = 15.34510852
ECCENTRICITY   = .0005782
INCLINATION    = 51.8801
RA_OF_ASC_NODE = 247.1130
ARG_OF_PERICENTER = 183.4218
MEAN_ANOMALY   = 176.6729

EPHEMERIS_TYPE = 0
CLASSIFICATION_TYPE = U
NORAD_CAT_ID   = 65966
ELEMENT_SET_NO = 999
REV_AT_EPOCH   = 319
BSTAR          = .1076E-2
MEAN_MOTION_DOT = .36329E-3
MEAN_MOTION_DDOT = 0

CCSDS_OMM_VERS = 2.0
CREATION_DATE  = 
ORIGINATOR     = 

OBJECT_NAME    = KUIPER-00146
OBJECT_ID      = 2025-228W
CENTER_NAME    = EARTH
REF_FRAME      = TEME
TIME_SYSTEM    = UTC
MEAN_ELEMENT_THEORY = SGP/SGP4

EPOCH          = 2025-10-26T17:08:10.375872
MEAN_MOTION    = 15.34468047
ECCENTRICITY   = .0006021
INCLINATION    = 51.8808
RA_OF_ASC_NODE = 247.1211
ARG_OF_PERICENTER = 183.2719
MEAN_ANOMALY   = 176.8228

EPHEMERIS_TYPE = 0
CLASSIFICATION_TYPE = U
NORAD_CAT_ID   = 65967
ELEMENT_SET_NO = 999
REV_AT_EPOCH   = 319
BSTAR          = .11612E-2
MEAN_MOTION_DOT = .39202E-3
MEAN_MOTION_DDOT = 0

CCSDS_OMM_VERS = 2.0
CREATION_DATE  = 
ORIGINATOR     = 

OBJECT_NAME    = KUIPER-00149
OBJECT_ID      = 2025-228X
CENTER_NAME    = EARTH
REF_FRAME      = TEME
TIME_SYSTEM    = UTC
MEAN_ELEMENT_THEORY = SGP/SGP4

EPOCH          = 2025-10-26T17:05:57.071904
MEAN_MOTION    = 15.34640433
ECCENTRICITY   = .0005767
INCLINATION    = 51.8803
RA_OF_ASC_NODE = 247.1062
ARG_OF_PERICENTER = 181.0919
MEAN_ANOMALY   = 179.0055

EPHEMERIS_TYPE = 0
CLASSIFICATION_TYPE = U
NORAD_CAT_ID   = 65968
ELEMENT_SET_NO = 999
REV_AT_EPOCH   = 319
BSTAR          = .95845E-3
MEAN_MOTION_DOT = .32437E-3
MEAN_MOTION_DDOT = 0

CCSDS_OMM_VERS = 2.0
CREATION_DATE  = 
ORIGINATOR     = 

OBJECT_NAME    = KUIPER-00154
OBJECT_ID      = 2025-228Y
CENTER_NAME    = EARTH
REF_FRAME      = TEME
TIME_SYSTEM    = UTC
MEAN_ELEMENT_THEORY = SGP/SGP4

EPOCH          = 2025-10-26T17:05:07.397088
MEAN_MOTION    = 15.34710856
ECCENTRICITY   = .0005855
INCLINATION    = 51.8806
RA_OF_ASC_NODE = 247.1032
ARG_OF_PERICENTER = 179.5444
MEAN_ANOMALY   = 180.5548

EPHEMERIS_TYPE = 0
CLASSIFICATION_TYPE = U
NORAD_CAT_ID   = 65969
ELEMENT_SET_NO = 999
REV_AT_EPOCH   = 319
BSTAR          = .9872E-3
MEAN_MOTION_DOT = .33503E-3
MEAN_MOTION_DDOT = 0

CCSDS_OMM_VERS = 2.0
CREATION_DATE  = 
ORIGINATOR     = 

OBJECT_NAME    = KUIPER-00157
OBJECT_ID      = 2025-228Z
CENTER_NAME    = EARTH
REF_FRAME      = TEME
TIME_SYSTEM    = UTC
MEAN_ELEMENT_THEORY = SGP/SGP4

EPOCH          = 2025-10-26T17:11:07.623744
MEAN_MOTION    = 15.34258892
ECCENTRICITY   = .0005731
INCLINATION    = 51.8814
RA_OF_ASC_NODE = 247.1352
ARG_OF_PERICENTER = 195.8729
MEAN_ANOMALY   = 164.2077

EPHEMERIS_TYPE = 0
CLASSIFICATION_TYPE = U
NORAD_CAT_ID   = 65970
ELEMENT_SET_NO = 999
REV_AT_EPOCH   = 319
BSTAR          = .12088E-2
MEAN_MOTION_DOT = .40557E-3
MEAN_MOTION_DDOT = 0

CCSDS_OMM_VERS = 2.0
CREATION_DATE  = 
ORIGINATOR     = 

OBJECT_NAME    = STRIX-5
OBJECT_ID      = 2025-229A
CENTER_NAME    = EARTH
REF_FRAME      = TEME
TIME_SYSTEM    = UTC
MEAN_ELEMENT_THEORY = SGP/SGP4

EPOCH          = 2025-10-24T06:59:29.825088
MEAN_MOTION    = 15.01617556
ECCENTRICITY   = .0040776
INCLINATION    = 41.9260
RA_OF_ASC_NODE = 152.9598
ARG_OF_PERICENTER = 308.0764
MEAN_ANOMALY   = 51.6386

EPHEMERIS_TYPE = 0
CLASSIFICATION_TYPE = U
NORAD_CAT_ID   = 65971
ELEMENT_SET_NO = 999
REV_AT_EPOCH   = 147
BSTAR          = .55984E-3
MEAN_MOTION_DOT = .7332E-4
MEAN_MOTION_DDOT = 0

CCSDS_OMM_VERS = 2.0
CREATION_DATE  = 
ORIGINATOR     = 

OBJECT_NAME    = ELECTRON R/B
OBJECT_ID      = 2025-229B
CENTER_NAME    = EARTH
REF_FRAME      = TEME
TIME_SYSTEM    = UTC
MEAN_ELEMENT_THEORY = SGP/SGP4

EPOCH          = 2025-10-26T13:16:01.841376
MEAN_MOTION    = 15.01642007
ECCENTRICITY   = .004043
INCLINATION    = 41.9264
RA_OF_ASC_NODE = 140.4735
ARG_OF_PERICENTER = 322.4918
MEAN_ANOMALY   = 37.3088

EPHEMERIS_TYPE = 0
CLASSIFICATION_TYPE = U
NORAD_CAT_ID   = 65972
ELEMENT_SET_NO = 999
REV_AT_EPOCH   = 179
BSTAR          = .42197E-3
MEAN_MOTION_DOT = .5478E-4
MEAN_MOTION_DDOT = 0

